GLOBALSTAR M094         
1 39074U 13005C   25158.83289865 -.00000079  00000+0  13887-3 0  9998
2 39074  51.9939 210.5976 0000339 204.7136 155.3714 12.62262616571192
GLOBALSTAR M096         
1 39075U 13005D   25158.76689774 -.00000094  00000+0  54500-4 0  9999
2 39075  52.0073 259.3054 0000599 158.9618 201.1274 12.62265033570102
GLOBALSTAR M078         
1 39076U 13005E   25158.89877111 -.00000173  00000+0 -38505-3 0  9993
2 39076  51.9895 343.4256 0001411 130.1810 229.9180 12.62260509568746
GLOBALSTAR M095         
1 39077U 13005F   25158.76676456 -.00000092  00000+0  67065-4 0  9992
2 39077  51.9816 341.0282 0000930 129.6864 230.4084 12.62263488568581
GLOBALSTAR M087         
1 52888U 22064A   25158.87663831 -.00000104  00000+0 -34743-5 0  9990
2 52888  51.9978 122.1435 0000226  49.2600 310.8286 12.62263571143866
